{
  "norad_id": 48596,
  "name": "STARLINK-2253",
  "history": [
    {
      "epoch": "2026-03-28T21:56:04.384896Z",
      "apogee_km": 476.07888150449344,
      "perigee_km": 474.2804341471474,
      "latitude_deg": -2.2549344901361903e-05,
      "longitude_deg": -105.08064314677584,
      "height_km": 475.9402109535203,
      "semi_major_axis_km": 6853.316657825821,
      "eccentricity": 0.00013121,
      "inclination_deg": 53.1603,
      "raan_deg": 50.2652,
      "arg_perigee_deg": 81.2026,
      "mean_anomaly_deg": 278.9123,
      "mean_motion_rev_day": 15.3021186
    },
    {
      "epoch": "2026-03-29T04:12:16.718400Z",
      "apogee_km": 476.08642960026555,
      "perigee_km": 474.1853317031728,
      "latitude_deg": -2.3997316206794958e-05,
      "longitude_deg": 159.39766267550362,
      "height_km": 475.9694400843566,
      "semi_major_axis_km": 6853.272880651719,
      "eccentricity": 0.0001387,
      "inclination_deg": 53.1608,
      "raan_deg": 49.0524,
      "arg_perigee_deg": 86.1116,
      "mean_anomaly_deg": 274.0043,
      "mean_motion_rev_day": 15.30226522
    },
    {
      "epoch": "2026-03-30T03:43:04.943712Z",
      "apogee_km": 476.0001959379906,
      "perigee_km": 474.47737583836624,
      "latitude_deg": 1.0817200814912582e-05,
      "longitude_deg": 161.18008955393128,
      "height_km": 476.2785312492491,
      "semi_major_axis_km": 6853.375785888178,
      "eccentricity": 0.0001111,
      "inclination_deg": 53.161,
      "raan_deg": 44.5014,
      "arg_perigee_deg": 100.6969,
      "mean_anomaly_deg": 259.4157,
      "mean_motion_rev_day": 15.30192057
    },
    {
      "epoch": "2026-03-30T03:43:04.944576Z",
      "apogee_km": 476.0004015392651,
      "perigee_km": 474.47717023709265,
      "latitude_deg": 8.096302443711109e-06,
      "longitude_deg": 161.18008391696327,
      "height_km": 476.27856941098236,
      "semi_major_axis_km": 6853.375785888178,
      "eccentricity": 0.00011113,
      "inclination_deg": 53.161,
      "raan_deg": 44.5014,
      "arg_perigee_deg": 100.6969,
      "mean_anomaly_deg": 259.4157,
      "mean_motion_rev_day": 15.30192057
    },
    {
      "epoch": "2026-03-30T20:57:39.460032Z",
      "apogee_km": 475.94064337553027,
      "perigee_km": 474.3568490395819,
      "latitude_deg": 1.7349653690259992e-05,
      "longitude_deg": -101.5101643600755,
      "height_km": 476.2259701836915,
      "semi_major_axis_km": 6853.285746207555,
      "eccentricity": 0.00011555,
      "inclination_deg": 53.1613,
      "raan_deg": 41.1631,
      "arg_perigee_deg": 103.0499,
      "mean_anomaly_deg": 257.0631,
      "mean_motion_rev_day": 15.30222213
    },
    {
      "epoch": "2026-03-31T20:28:28.513056Z",
      "apogee_km": 476.16892401313544,
      "perigee_km": 474.4158167801879,
      "latitude_deg": 4.799559725566416e-05,
      "longitude_deg": -99.73399808427705,
      "height_km": 476.55133544444044,
      "semi_major_axis_km": 6853.429370396661,
      "eccentricity": 0.0001279,
      "inclination_deg": 53.1613,
      "raan_deg": 36.6093,
      "arg_perigee_deg": 114.2941,
      "mean_anomaly_deg": 245.8194,
      "mean_motion_rev_day": 15.30174111
    },
    {
      "epoch": "2026-04-01T13:43:04.599264Z",
      "apogee_km": 476.07187410116967,
      "perigee_km": 474.4640652952776,
      "latitude_deg": -9.373385576832727e-06,
      "longitude_deg": -2.4258586330920915,
      "height_km": 476.3863429757555,
      "semi_major_axis_km": 6853.404969698223,
      "eccentricity": 0.0001173,
      "inclination_deg": 53.1637,
      "raan_deg": 33.276,
      "arg_perigee_deg": 105.8615,
      "mean_anomaly_deg": 254.2515,
      "mean_motion_rev_day": 15.30182283
    },
    {
      "epoch": "2026-04-02T19:30:04.909248Z",
      "apogee_km": 476.2549006622294,
      "perigee_km": 474.1661374053774,
      "latitude_deg": -4.148304654593002e-06,
      "longitude_deg": -96.16660681850195,
      "height_km": 476.480285642524,
      "semi_major_axis_km": 6853.347519033803,
      "eccentricity": 0.00015239,
      "inclination_deg": 53.1627,
      "raan_deg": 27.5097,
      "arg_perigee_deg": 110.8442,
      "mean_anomaly_deg": 249.2722,
      "mean_motion_rev_day": 15.30201524
    },
    {
      "epoch": "2026-04-03T19:00:52.733664Z",
      "apogee_km": 476.41521539134374,
      "perigee_km": 474.01928274586953,
      "latitude_deg": -7.20158825791614e-05,
      "longitude_deg": -94.37978199346061,
      "height_km": 476.07110385820647,
      "semi_major_axis_km": 6853.354249068607,
      "eccentricity": 0.0001748,
      "inclination_deg": 53.161,
      "raan_deg": 22.9615,
      "arg_perigee_deg": 87.9109,
      "mean_anomaly_deg": 272.2091,
      "mean_motion_rev_day": 15.3019927
    },
    {
      "epoch": "2026-04-04T12:15:27.734688Z",
      "apogee_km": 476.44423810156513,
      "perigee_km": 473.9851184523659,
      "latitude_deg": 1.6744617695951258e-07,
      "longitude_deg": 2.9292865426769996,
      "height_km": 476.0432899176997,
      "semi_major_axis_km": 6853.351678276965,
      "eccentricity": 0.00017941,
      "inclination_deg": 53.1624,
      "raan_deg": 19.6245,
      "arg_perigee_deg": 86.7835,
      "mean_anomaly_deg": 273.3371,
      "mean_motion_rev_day": 15.30200131
    }
  ]
}